start=new Date('2021-08-25T00:00:00.000Z').valueOf();
sats=[{"MEAN_MOTION_DDOT":"0.0000000000000","OBJECT_NAME":"STARLINK-1927","COUNTRY_CODE":"US","TLE_LINE2":"2 47181  53.0548 164.3034 0002079  60.2378 299.8818 15.06400008 42233","APOAPSIS":"548.653","PERIAPSIS":"545.774","EPOCH":"2021-08-24T18:28:40.257696","PERIOD":"95.592","ELEMENT_SET_NO":"999","RA_OF_ASC_NODE":"164.3034","TLE_LINE1":"1 47181U 20088BM  21236.76991039  .00000650  00000-0  62520-4 0  9997","ARG_OF_PERICENTER":"60.2378","REF_FRAME":"TEME","CENTER_NAME":"EARTH","LAUNCH_DATE":"2020-11-25","MEAN_ANOMALY":"299.8818","MEAN_ELEMENT_THEORY":"SGP4","EPHEMERIS_TYPE":"0","SITE":"AFETR","BSTAR":"0.00006252000000","ECCENTRICITY":"0.00020790","OBJECT_TYPE":"PAYLOAD","REV_AT_EPOCH":"4223","RCS_SIZE":"LARGE","MEAN_MOTION":"15.06400008","DECAY_DATE":null,"GP_ID":"183385983","SEMIMAJOR_AXIS":"6925.349","CLASSIFICATION_TYPE":"U","INCLINATION":"53.0548","TIME_SYSTEM":"UTC","FILE":"3102580","OBJECT_ID":"2020-088BM","NORAD_CAT_ID":"47181","MEAN_MOTION_DOT":"0.00000650"},{"MEAN_MOTION_DDOT":"0.0000000000000","OBJECT_NAME":"STARLINK-1952","COUNTRY_CODE":"US","APOAPSIS":"542.507","TLE_LINE2":"2 47349  53.0534 305.0232 0002491  85.5188 274.6086 15.08500401 33806","PERIAPSIS":"539.060","PERIOD":"95.459","ELEMENT_SET_NO":"999","EPOCH":"2021-08-24T14:33:39.491712","RA_OF_ASC_NODE":"305.0232","ARG_OF_PERICENTER":"85.5188","TLE_LINE1":"1 47349U 21005A   21236.60670708  .00236693  00000-0  14533-1 0  9999","REF_FRAME":"TEME","LAUNCH_DATE":"2021-01-20","CENTER_NAME":"EARTH","MEAN_ANOMALY":"274.6086","MEAN_ELEMENT_THEORY":"SGP4","EPHEMERIS_TYPE":"0","BSTAR":"0.01453300000000","SITE":"AFETR","RCS_SIZE":"LARGE","REV_AT_EPOCH":"3380","OBJECT_TYPE":"PAYLOAD","ECCENTRICITY":"0.00024910","DECAY_DATE":null,"MEAN_MOTION":"15.08500401","CLASSIFICATION_TYPE":"U","SEMIMAJOR_AXIS":"6918.919","GP_ID":"183363569","TIME_SYSTEM":"UTC","INCLINATION":"53.0534","OBJECT_ID":"2021-005A","FILE":"3102504","NORAD_CAT_ID":"47349","MEAN_MOTION_DOT":"0.00236693"},{"MEAN_ELEMENT_THEORY":"SGP4","EPHEMERIS_TYPE":"0","LAUNCH_DATE":"2021-01-20","CENTER_NAME":"EARTH","MEAN_ANOMALY":"253.5078","ARG_OF_PERICENTER":"106.6020","TLE_LINE1":"1 47350U 21005B   21236.60494800  .00001343  00000-0  10900-3 0  9996","REF_FRAME":"TEME","OBJECT_ID":"2021-005B","FILE":"3102580","NORAD_CAT_ID":"47350","MEAN_MOTION_DOT":"0.00001343","CLASSIFICATION_TYPE":"U","GP_ID":"183387753","SEMIMAJOR_AXIS":"6925.339","TIME_SYSTEM":"UTC","INCLINATION":"53.0533","DECAY_DATE":null,"MEAN_MOTION":"15.06403168","BSTAR":"0.00010900000000","SITE":"AFETR","REV_AT_EPOCH":"3313","RCS_SIZE":"LARGE","OBJECT_TYPE":"PAYLOAD","ECCENTRICITY":"0.00009920","COUNTRY_CODE":"US","OBJECT_NAME":"STARLINK-2011","MEAN_MOTION_DDOT":"0.0000000000000","EPOCH":"2021-08-24T14:31:07.507200","PERIOD":"95.592","ELEMENT_SET_NO":"999","RA_OF_ASC_NODE":"305.0600","PERIAPSIS":"546.517","APOAPSIS":"547.891","TLE_LINE2":"2 47350  53.0533 305.0600 0000992 106.6020 253.5078 15.06403168 33133"},{"COUNTRY_CODE":"US","OBJECT_NAME":"STARLINK-2017","MEAN_MOTION_DDOT":"0.0000000000000","EPOCH":"2021-08-24T18:31:20.578080","PERIOD":"95.593","ELEMENT_SET_NO":"999","RA_OF_ASC_NODE":"264.3177","PERIAPSIS":"547.040","APOAPSIS":"547.484","TLE_LINE2":"2 47351  53.0492 264.3177 0000320 313.2033  46.8929 15.06384199 33713","MEAN_ELEMENT_THEORY":"SGP4","EPHEMERIS_TYPE":"0","CENTER_NAME":"EARTH","LAUNCH_DATE":"2021-01-20","MEAN_ANOMALY":"46.8929","ARG_OF_PERICENTER":"313.2033","TLE_LINE1":"1 47351U 21005C   21236.77176595  .00000251  00000-0  35731-4 0  9990","REF_FRAME":"TEME","OBJECT_ID":"2021-005C","FILE":"3102580","NORAD_CAT_ID":"47351","MEAN_MOTION_DOT":"0.00000251","CLASSIFICATION_TYPE":"U","GP_ID":"183386501","SEMIMAJOR_AXIS":"6925.397","TIME_SYSTEM":"UTC","INCLINATION":"53.0492","DECAY_DATE":null,"MEAN_MOTION":"15.06384199","BSTAR":"0.00003573100000","SITE":"AFETR","RCS_SIZE":"LARGE","REV_AT_EPOCH":"3371","ECCENTRICITY":"0.00003200","OBJECT_TYPE":"PAYLOAD"},{"NORAD_CAT_ID":"47352","MEAN_MOTION_DOT":"0.00000463","FILE":"3102580","OBJECT_ID":"2021-005D","TIME_SYSTEM":"UTC","INCLINATION":"53.0553","GP_ID":"183386252","SEMIMAJOR_AXIS":"6925.345","CLASSIFICATION_TYPE":"U","MEAN_MOTION":"15.06401202","DECAY_DATE":null,"OBJECT_TYPE":"PAYLOAD","ECCENTRICITY":"0.00007850","REV_AT_EPOCH":"3312","RCS_SIZE":"LARGE","SITE":"AFETR","BSTAR":"0.00004998300000","EPHEMERIS_TYPE":"0","MEAN_ELEMENT_THEORY":"SGP4","MEAN_ANOMALY":"278.4499","CENTER_NAME":"EARTH","LAUNCH_DATE":"2021-01-20","REF_FRAME":"TEME","TLE_LINE1":"1 47352U 21005D   21236.59114334  .00000463  00000-0  49983-4 0  9993","ARG_OF_PERICENTER":"81.6579","RA_OF_ASC_NODE":"305.1061","ELEMENT_SET_NO":"999","PERIOD":"95.592","EPOCH":"2021-08-24T14:11:14.784576","PERIAPSIS":"546.666","TLE_LINE2":"2 47352  53.0553 305.1061 0000785  81.6579 278.4499 15.06401202 33129","APOAPSIS":"547.754","COUNTRY_CODE":"US","OBJECT_NAME":"STARLINK-2034","MEAN_MOTION_DDOT":"0.0000000000000"},{"CENTER_NAME":"EARTH","LAUNCH_DATE":"2021-01-20","MEAN_ANOMALY":"305.3212","ARG_OF_PERICENTER":"54.7858","TLE_LINE1":"1 47353U 21005E   21236.74550946  .00000756  00000-0  69654-4 0  9996","REF_FRAME":"TEME","MEAN_ELEMENT_THEORY":"SGP4","EPHEMERIS_TYPE":"0","DECAY_DATE":null,"MEAN_MOTION":"15.06395581","BSTAR":"0.00006965400000","SITE":"AFETR","RCS_SIZE":"LARGE","REV_AT_EPOCH":"3392","OBJECT_TYPE":"PAYLOAD","ECCENTRICITY":"0.00008710","OBJECT_ID":"2021-005E","FILE":"3102580","MEAN_MOTION_DOT":"0.00000756","NORAD_CAT_ID":"47353","CLASSIFICATION_TYPE":"U","GP_ID":"183387503","SEMIMAJOR_AXIS":"6925.362","TIME_SYSTEM":"UTC","INCLINATION":"53.0543","MEAN_MOTION_DDOT":"0.0000000000000","OBJECT_NAME":"STARLINK-2045","COUNTRY_CODE":"US","PERIAPSIS":"546.624","APOAPSIS":"547.830","TLE_LINE2":"2 47353  53.0543 249.4037 0000871  54.7858 305.3212 15.06395581 33922","EPOCH":"2021-08-24T17:53:32.017344","PERIOD":"95.592","ELEMENT_SET_NO":"999","RA_OF_ASC_NODE":"249.4037"},{"EPHEMERIS_TYPE":"0","MEAN_ELEMENT_THEORY":"SGP4","REF_FRAME":"TEME","ARG_OF_PERICENTER":"125.1221","TLE_LINE1":"1 47354U 21005F   21236.82475113  .00000321  00000-0  40412-4 0  9997","MEAN_ANOMALY":"234.9801","CENTER_NAME":"EARTH","LAUNCH_DATE":"2021-01-20","TIME_SYSTEM":"UTC","INCLINATION":"53.0546","CLASSIFICATION_TYPE":"U","GP_ID":"183387254","SEMIMAJOR_AXIS":"6925.364","NORAD_CAT_ID":"47354","MEAN_MOTION_DOT":"0.00000321","OBJECT_ID":"2021-005F","FILE":"3102580","REV_AT_EPOCH":"3365","RCS_SIZE":"LARGE","OBJECT_TYPE":"PAYLOAD","ECCENTRICITY":"0.00003570","BSTAR":"0.00004041200000","SITE":"AFETR","DECAY_DATE":null,"MEAN_MOTION":"15.06394965","COUNTRY_CODE":"US","MEAN_MOTION_DDOT":"0.0000000000000","OBJECT_NAME":"STARLINK-2046","RA_OF_ASC_NODE":"269.0678","PERIOD":"95.592","ELEMENT_SET_NO":"999","EPOCH":"2021-08-24T19:47:38.497632","APOAPSIS":"547.476","TLE_LINE2":"2 47354  53.0546 269.0678 0000357 125.1221 234.9801 15.06394965 33657","PERIAPSIS":"546.982"},{"MEAN_ELEMENT_THEORY":"SGP4","EPHEMERIS_TYPE":"0","ARG_OF_PERICENTER":"39.9433","TLE_LINE1":"1 47355U 21005G   21236.76436360  .00000422  00000-0  47221-4 0  9999","REF_FRAME":"TEME","CENTER_NAME":"EARTH","LAUNCH_DATE":"2021-01-20","MEAN_ANOMALY":"320.1586","CLASSIFICATION_TYPE":"U","SEMIMAJOR_AXIS":"6925.346","GP_ID":"183386002","TIME_SYSTEM":"UTC","INCLINATION":"53.0485","OBJECT_ID":"2021-005G","FILE":"3102580","NORAD_CAT_ID":"47355","MEAN_MOTION_DOT":"0.00000422","BSTAR":"0.00004722100000","SITE":"AFETR","RCS_SIZE":"LARGE","REV_AT_EPOCH":"3385","ECCENTRICITY":"0.00004160","OBJECT_TYPE":"PAYLOAD","DECAY_DATE":null,"MEAN_MOTION":"15.06400804","COUNTRY_CODE":"US","OBJECT_NAME":"STARLINK-2047","MEAN_MOTION_DDOT":"0.0000000000000","PERIOD":"95.592","EPOCH":"2021-08-24T18:20:41.015040","ELEMENT_SET_NO":"999","RA_OF_ASC_NODE":"254.3516","APOAPSIS":"547.499","TLE_LINE2":"2 47355  53.0485 254.3516 0000416  39.9433 320.1586 15.06400804 33851","PERIAPSIS":"546.923"},{"LAUNCH_DATE":"2021-01-20","CENTER_NAME":"EARTH","MEAN_ANOMALY":"301.5611","TLE_LINE1":"1 47356U 21005H   21236.82612918  .00000380  00000-0  44398-4 0  9997","ARG_OF_PERICENTER":"58.5405","REF_FRAME":"TEME","MEAN_ELEMENT_THEORY":"SGP4","EPHEMERIS_TYPE":"0","MEAN_MOTION":"15.06394957","DECAY_DATE":null,"SITE":"AFETR","BSTAR":"0.00004439800000","OBJECT_TYPE":"PAYLOAD","ECCENTRICITY":"0.00002720","REV_AT_EPOCH":"3358","RCS_SIZE":"LARGE","FILE":"3102580","OBJECT_ID":"2021-005H","MEAN_MOTION_DOT":"0.00000380","NORAD_CAT_ID":"47356","GP_ID":"183386752","SEMIMAJOR_AXIS":"6925.364","CLASSIFICATION_TYPE":"U","INCLINATION":"53.0545","TIME_SYSTEM":"UTC","OBJECT_NAME":"STARLINK-2049","MEAN_MOTION_DDOT":"0.0000000000000","COUNTRY_CODE":"US","PERIAPSIS":"547.041","TLE_LINE2":"2 47356  53.0545 274.0620 0000272  58.5405 301.5611 15.06394957 33583","APOAPSIS":"547.417","PERIOD":"95.592","EPOCH":"2021-08-24T19:49:37.561152","ELEMENT_SET_NO":"999","RA_OF_ASC_NODE":"274.0620"},{"OBJECT_NAME":"STARLINK-2050","MEAN_MOTION_DDOT":"0.0000000000000","COUNTRY_CODE":"US","TLE_LINE2":"2 47357  53.0569 303.7297 0000781  80.3640 279.7437 15.06386876 33177","APOAPSIS":"547.795","PERIAPSIS":"546.713","ELEMENT_SET_NO":"999","PERIOD":"95.593","EPOCH":"2021-08-24T21:37:07.404960","RA_OF_ASC_NODE":"303.7297","TLE_LINE1":"1 47357U 21005J   21236.90078015 -.00000022  00000-0  17433-4 0  9995","ARG_OF_PERICENTER":"80.3640","REF_FRAME":"TEME","LAUNCH_DATE":"2021-01-20","CENTER_NAME":"EARTH","MEAN_ANOMALY":"279.7437","MEAN_ELEMENT_THEORY":"SGP4","EPHEMERIS_TYPE":"0","SITE":"AFETR","BSTAR":"0.00001743300000","OBJECT_TYPE":"PAYLOAD","ECCENTRICITY":"0.00007810","REV_AT_EPOCH":"3317","RCS_SIZE":"LARGE","MEAN_MOTION":"15.06386876","DECAY_DATE":null,"SEMIMAJOR_AXIS":"6925.389","GP_ID":"183387004","CLASSIFICATION_TYPE":"U","INCLINATION":"53.0569","TIME_SYSTEM":"UTC","FILE":"3102580","OBJECT_ID":"2021-005J","NORAD_CAT_ID":"47357","MEAN_MOTION_DOT":"-0.00000022"}];
